[
  {
    "line1": "185 Berry St",
    "line2": "Suite 6100",
    "city": "San Francisco",
    "state": "CA",
    "zip": "94107",
    "id": "0a6c122c428c64584d84ddefb24016d41ffb6c698e4ca2982e32a826d37f8602"
  },
  {
    "line1": "500 S State St",
    "city": "Ann Arbor",
    "state": "MI",
    "zip": "48109",
    "id": "90acdaad0ad2127d830fbb8590fb14e5ffb0631ed9a5714fd4d6e0f33b06bea5"
  },
  {
    "line1": "1600 Holloway Ave",
    "line2": "Suite 20",
    "city": "San Francisco",
    "state": "CA",
    "zip": "94132",
    "id": "05ace961638f81c5b7952089cb83013828010bb378a83966c60bab9a54096516"
  },
  {
    "line1": "1600 Holloway Ave",
    "line2": "Suite 10",
    "city": "San Francisco",
    "state": "CA",
    "zip": "94132",
    "id": "5cf4d4e1ba48966f1c396e62cc173f43ef85679fd32e63d3bc7cd56653b2f96e"
  },
  {
    "line1": "1600 Holloway Ave",
    "city": "San Francisco",
    "state": "CA",
    "zip": "94132",
    "id": "336ecc096ddf679518f8ba2caa67fdddf375e84701ecfeb393fbf0abdf2209b9"
  },
  {
    "line1": "Roosevelt Way NE",
    "city": "Seattle",
    "state": "WA",
    "zip": "98115",
    "id": "de3e73a2a2e93620c7662ac1c5dfaa5c49ea37b9f2c4ecde5bbfa06bf42a46dd"
  },
  {
    "line1": "3400 N. Charles St.",
    "city": "Baltimore",
    "state": "MD",
    "zip": "21218",
    "id": "c6ed1f9aca52d3ed0ae3ed2a5c7f5e7ddb87ee4d370a3a60680d28a5abc2c7ab"
  },
  {
    "line1": "Massachusetts Hall",
    "city": "Cambridge",
    "state": "MA",
    "zip": "02138",
    "id": "8bcda524d232a6396f40c0ce14d12901fc5e5e82ac76f2a620da0ad4179666e0"
  }
]